{
    "links": {
        "self": "http://www.neowsapp.com/rest/v1/neo/3843802?api_key=iIulBulltgU6a56xZRHN4H3l9WmuAYTsLGpBGhQ2"
    },
    "id": "3843802",
    "neo_reference_id": "3843802",
    "name": "(2019 RV1)",
    "designation": "2019 RV1",
    "nasa_jpl_url": "http://ssd.jpl.nasa.gov/sbdb.cgi?sstr=3843802",
    "absolute_magnitude_h": 23.8,
    "estimated_diameter": {
        "kilometers": {
            "estimated_diameter_min": 0.046190746,
            "estimated_diameter_max": 0.1032856481
        },
        "meters": {
            "estimated_diameter_min": 46.1907460282,
            "estimated_diameter_max": 103.2856480504
        },
        "miles": {
            "estimated_diameter_min": 0.0287015901,
            "estimated_diameter_max": 0.0641787064
        },
        "feet": {
            "estimated_diameter_min": 151.544447199,
            "estimated_diameter_max": 338.8636855496
        }
    },
    "is_potentially_hazardous_asteroid": false,
    "close_approach_data": [
        {
            "close_approach_date": "2019-08-31",
            "close_approach_date_full": "2019-Aug-31 02:52",
            "epoch_date_close_approach": 1567219920000,
            "relative_velocity": {
                "kilometers_per_second": "6.3747173336",
                "kilometers_per_hour": "22948.9824010338",
                "miles_per_hour": "14259.6052035757"
            },
            "miss_distance": {
                "astronomical": "0.1073151577",
                "lunar": "41.7455963453",
                "kilometers": "16054119.010634099",
                "miles": "9975566.9800206062"
            },
            "orbiting_body": "Earth"
        }
    ],
    "orbital_data": {
        "orbit_id": "4",
        "orbit_determination_date": "2019-09-20 05:56:54",
        "first_observation_date": "2019-09-06",
        "last_observation_date": "2019-09-20",
        "data_arc_in_days": 14,
        "observations_used": 43,
        "orbit_uncertainty": "8",
        "minimum_orbit_intersection": ".0963155",
        "jupiter_tisserand_invariant": "3.567",
        "epoch_osculation": "2458734.5",
        "eccentricity": ".4789526736761289",
        "semi_major_axis": "2.122455805403197",
        "inclination": "5.768258644220842",
        "ascending_node_longitude": "160.3404265255181",
        "orbital_period": "1129.422436150457",
        "perihelion_distance": "1.105899922645914",
        "perihelion_argument": "170.4221765613062",
        "aphelion_distance": "3.13901168816048",
        "perihelion_time": "2458722.768969213532",
        "mean_anomaly": "3.73923073241117",
        "mean_motion": ".3187469882633377",
        "equinox": "J2000",
        "orbit_class": {
            "orbit_class_type": "AMO",
            "orbit_class_description": "Near-Earth asteroid orbits similar to that of 1221 Amor",
            "orbit_class_range": "1.017 AU < q (perihelion) < 1.3 AU"
        }
    },
    "is_sentry_object": false
}